              TDR Cartesian                         TDR Cartesian  
    -----------------------------------       --------------------------------
     X    =        -369921.34                 X    =         -112752.03
     Y    =       14409071.65  feet           Y    =         4391885.04  meter
     Z    =       16966455.09                 Z    =         5171375.51
     XDOT =     -22915.041061                 XDOT =       -6984.504515
     YDOT =      -6050.916307  feet/sec       YDOT =       -1844.319291  meter/sec
     ZDOT =       4619.408232                 ZDOT =        1407.995629
  
  
    The mean element set is posted at the UTC for which position is
    just north of the next ascending node relative to the above
    vector time
 
 
    TWO LINE MEAN ELEMENT SET
  
    ISS
    1 25544U 98067A   14042.60121303  .00016717  00000-0  10270-3 0  9048
    2 25544  51.6492   2.1460 0003609 123.7773 236.3721 15.50257043 31842
  
  
    Satellite: ISS
    Catalog Number: 25544
    Epoch time:      14042.60121303   =   yrday.fracday
    Element set:     904
    Inclination:       51.6492  deg
    RA of node:         2.1460  deg
    Eccentricity:     .0003609     
    Arg of perigee:   123.7773  deg
    Mean anomaly:     236.3721  deg
    Mean motion:   15.50257043  rev/day
    Decay rate:    1.67170E-04  rev/day^2
    Epoch rev:            3184
    Checksum:              264
 
 
    Coasting Arc #6 (Orbit 3198)
    ---------------------------------------
 
    Vector Time (GMT): 2014/043/13:12:36.088
    Vector Time (MET): N/A
    Weight (LBS)     : 911651.1
 
              M50 Cartesian                         M50 Keplerian  
    -----------------------------------       --------------------------------
     X    =       -1332788.51                 A    =         6788954.46  meter
     Y    =       -4100243.12  meter          E    =           .0017278
     Z    =       -5259139.62                 I    =           51.61501
     XDOT =       7493.666028                 Wp   =           90.61586
     YDOT =      -1182.135131  meter/sec      RA   =          356.91126  deg
     ZDOT =       -980.403435                 TA   =          169.99078
                                              MA   =          169.95633
                                              Ha   =            228.303  n.mi
                                              Hp   =            219.575
 
              M50 Cartesian                         J2K Cartesian  
    -----------------------------------       --------------------------------
     X    =       -4372665.71                 X    =        -1261293.03
     Y    =      -13452241.20  feet           Y    =        -4114747.70  meter
     Z    =      -17254395.09                 Z    =        -5265440.12
     XDOT =      24585.518466                 XDOT =        7511.090355
     YDOT =      -3878.396100  feet/sec       YDOT =       -1098.238784  meter/sec
     ZDOT =      -3216.546702                 ZDOT =        -943.958772
 
              TDR Cartesian                         TDR Cartesian  
    -----------------------------------       --------------------------------
     X    =         634001.99                 X    =          193243.81
     Y    =      -14099192.06  feet           Y    =        -4297433.74  meter
     Z    =      -17280277.00                 Z    =        -5267028.43
     XDOT =      23406.038297                 XDOT =        7134.160473
     YDOT =       4794.045994  feet/sec       YDOT =        1461.225219  meter/sec
     ZDOT =      -3062.516538                 ZDOT =        -933.455041
  
  
    The mean element set is posted at the UTC for which position is
    just north of the next ascending node relative to the above
    vector time
 
 
    TWO LINE MEAN ELEMENT SET
  
    ISS
    1 25544U 98067A   14043.56816786  .00016717  00000-0  10270-3 0  9051
    2 25544  51.6495 357.3534 0003671 125.4501 234.6992 15.50252265 31997
  
  
    Satellite: ISS
    Catalog Number: 25544
    Epoch time:      14043.56816786   =   yrday.fracday
    Element set:     905
    Inclination:       51.6495  deg
    RA of node:       357.3534  deg
    Eccentricity:     .0003671     
    Arg of perigee:   125.4501  deg
    Mean anomaly:     234.6992  deg
    Mean motion:   15.50252265  rev/day
    Decay rate:    1.67170E-04  rev/day^2
    Epoch rev:            3199
    Checksum:              322
 
 
    Coasting Arc #7 (Orbit 3214)
    ---------------------------------------
 
    Vector Time (GMT): 2014/044/13:12:36.088
    Vector Time (MET): N/A
    Weight (LBS)     : 911651.1
 
              M50 Cartesian                         M50 Keplerian  
    -----------------------------------       --------------------------------
     X    =        1152936.35                 A    =         6788537.75  meter
     Y    =        4079925.62  meter          E    =           .0006178
     Z    =        5297471.52                 I    =           51.58374
     XDOT =      -7508.524393                 Wp   =          121.32246
     YDOT =       1464.490056  meter/sec      RA   =          351.95045  deg
     ZDOT =        502.672702                 TA   =          323.85635
                                              MA   =          323.89809
                                              Ha   =            228.089  n.mi
                                              Hp   =            219.631
 
              M50 Cartesian                         J2K Cartesian  
    -----------------------------------       --------------------------------
     X    =        3782599.57                 X    =         1081495.24
     Y    =       13385582.76  feet           Y    =         4092419.38  meter
     Z    =       17380155.92                 Z    =         5302898.41
     XDOT =     -24634.266382                 XDOT =       -7526.784364
     YDOT =       4804.757402  feet/sec       YDOT =        1380.422866  meter/sec
     ZDOT =       1649.188654                 ZDOT =         466.153812
 
              TDR Cartesian                         TDR Cartesian  
    -----------------------------------       --------------------------------
     X    =        -927544.62                 X    =         -282715.60
     Y    =       13850969.05  feet           Y    =         4221775.36  meter
     Z    =       17402356.81                 Z    =         5304238.36
     XDOT =     -23844.836153                 XDOT =       -7267.906060
     YDOT =      -3489.588488  feet/sec       YDOT =       -1063.626571  meter/sec
     ZDOT =       1494.803330                 ZDOT =         455.616055
  
  
    The mean element set is posted at the UTC for which position is
    just north of the next ascending node relative to the above
    vector time
 
 
    TWO LINE MEAN ELEMENT SET
  
    ISS
    1 25544U 98067A   14044.59956444  .00016717  00000-0  10270-3 0  9062
    2 25544  51.6498 352.2428 0003581 131.0422 229.1039 15.50314656 32154
  
  
    Satellite: ISS
    Catalog Number: 25544
    Epoch time:      14044.59956444   =   yrday.fracday
    Element set:     906
    Inclination:       51.6498  deg
    RA of node:       352.2428  deg
    Eccentricity:     .0003581     
    Arg of perigee:   131.0422  deg
    Mean anomaly:     229.1039  deg
    Mean motion:   15.50314656  rev/day
    Decay rate:    1.67170E-04  rev/day^2
    Epoch rev:            3215
    Checksum:              300
 
 
    Coasting Arc #8 (Orbit 3229)
    ---------------------------------------
 
    Vector Time (GMT): 2014/045/13:12:36.088
    Vector Time (MET): N/A
    Weight (LBS)     : 911651.1
 
              M50 Cartesian                         M50 Keplerian  
    -----------------------------------       --------------------------------
     X    =        -951675.49                 A    =         6788494.38  meter
     Y    =       -4119890.14  meter          E    =           .0017716
     Z    =       -5326006.02                 I    =           51.55353
     XDOT =       7452.616057                 Wp   =           97.90880
     YDOT =      -1723.341602  meter/sec      RA   =          346.98558  deg
     ZDOT =          -.974243                 TA   =          172.09586
                                              MA   =          172.06791
                                              Ha   =            228.139  n.mi
                                              Hp   =            219.587
 
              M50 Cartesian                         J2K Cartesian  
    -----------------------------------       --------------------------------
     X    =       -3122294.92                 X    =         -879663.82
     Y    =      -13516699.93  feet           Y    =        -4130130.17  meter
     Z    =      -17473773.03                 Z    =        -5330453.78
     XDOT =      24450.840081                 XDOT =        7471.337689
     YDOT =      -5654.007879  feet/sec       YDOT =       -1639.897001  meter/sec
     ZDOT =         -3.196334                 ZDOT =          35.274253
 
              TDR Cartesian                         TDR Cartesian  
    -----------------------------------       --------------------------------
     X    =        1357935.06                 X    =          413898.61
     Y    =      -13783115.21  feet           Y    =        -4201093.52  meter
     Z    =      -17491837.93                 Z    =        -5331512.20
     XDOT =      23988.361842                 XDOT =        7311.652689
     YDOT =       2162.991131  feet/sec       YDOT =         659.279697  meter/sec
     ZDOT =        150.083453                 ZDOT =          45.745437
  
  
    The mean element set is posted at the UTC for which position is
    just north of the next ascending node relative to the above
    vector time
 
 
    TWO LINE MEAN ELEMENT SET
  
    ISS
    1 25544U 98067A   14045.56648312  .00016717  00000-0  10270-3 0  9073
    2 25544  51.6504 347.4503 0003653 132.8324 227.3135 15.50311623 32307
  
